[{"OBJECT_NAME":"GEESAT-1 09","OBJECT_ID":"2022-058J","EPOCH":"2026-03-09T22:14:58.178400","MEAN_MOTION":14.996745,"ECCENTRICITY":0.0007116,"INCLINATION":49.9974,"RA_OF_ASC_NODE":293.7726,"ARG_OF_PERICENTER":137.6611,"MEAN_ANOMALY":222.4884,"EPHEMERIS_TYPE":0,"CLASSIFICATION_TYPE":"U","NORAD_CAT_ID":52793,"ELEMENT_SET_NO":999,"REV_AT_EPOCH":20534,"BSTAR":0.00045554765,"MEAN_MOTION_DOT":5.429e-5,"MEAN_MOTION_DDOT":0},{"OBJECT_NAME":"STARLINK-6275","OBJECT_ID":"2023-078F","EPOCH":"2026-03-09T22:18:42.353568","MEAN_MOTION":14.98336233,"ECCENTRICITY":0.00028002,"INCLINATION":70.0016,"RA_OF_ASC_NODE":3.8295,"ARG_OF_PERICENTER":261.6536,"MEAN_ANOMALY":98.4306,"EPHEMERIS_TYPE":0,"CLASSIFICATION_TYPE":"U","NORAD_CAT_ID":56772,"ELEMENT_SET_NO":999,"REV_AT_EPOCH":15222,"BSTAR":-0.00017523289,"MEAN_MOTION_DOT":-2.183e-5,"MEAN_MOTION_DDOT":0}]
